ALICE                   
1 39467U 13072F   26068.66905005  .00012311  00000+0  62398-3 0  9993
2 39467 120.4625 282.3278 0159202 246.5562 111.8695 15.07155655100262
STARLINK-32501          
1 61890U 24204S   26068.42332736  .00000535  00000+0  30193-4 0  9990
2 61890  53.1613 128.5371 0001160  85.4120 274.7014 15.30189185 75053
